GECAM-B                 
1 47235U 20094B   26058.19405615  .00003224  00000+0  23073-3 0  9996
2 47235  28.9982  10.8844 0010635 257.2071 102.7339 15.01652363285175
STARLINK-34872          
1 65296U 25184Z   26068.73392880  .00003203  00000+0  22605-3 0  9995
2 65296  97.6023 122.6445 0001341 111.5067 248.6303 15.05653697 31301
