[{"OBJECT_NAME":"GECAM-B","OBJECT_ID":"2020-094B","EPOCH":"2026-02-27T04:39:26.451360","MEAN_MOTION":15.01652363,"ECCENTRICITY":0.0010635,"INCLINATION":28.9982,"RA_OF_ASC_NODE":10.8844,"ARG_OF_PERICENTER":257.2071,"MEAN_ANOMALY":102.7339,"EPHEMERIS_TYPE":0,"CLASSIFICATION_TYPE":"U","NORAD_CAT_ID":47235,"ELEMENT_SET_NO":999,"REV_AT_EPOCH":28517,"BSTAR":0.00023073,"MEAN_MOTION_DOT":3.224e-5,"MEAN_MOTION_DDOT":0},{"OBJECT_NAME":"STARLINK-34872","OBJECT_ID":"2025-184Z","EPOCH":"2026-03-09T17:36:51.448320","MEAN_MOTION":15.05653697,"ECCENTRICITY":0.00013414,"INCLINATION":97.6023,"RA_OF_ASC_NODE":122.6445,"ARG_OF_PERICENTER":111.5067,"MEAN_ANOMALY":248.6303,"EPHEMERIS_TYPE":0,"CLASSIFICATION_TYPE":"U","NORAD_CAT_ID":65296,"ELEMENT_SET_NO":999,"REV_AT_EPOCH":3130,"BSTAR":0.00022605427,"MEAN_MOTION_DOT":3.203e-5,"MEAN_MOTION_DDOT":0}]
